OBJECT_NAME,OBJECT_ID,EPOCH,MEAN_MOTION,ECCENTRICITY,INCLINATION,RA_OF_ASC_NODE,ARG_OF_PERICENTER,MEAN_ANOMALY,EPHEMERIS_TYPE,CLASSIFICATION_TYPE,NORAD_CAT_ID,ELEMENT_SET_NO,REV_AT_EPOCH,BSTAR,MEAN_MOTION_DOT,MEAN_MOTION_DDOT
FLOCK 4BE-7,2024-149P,2026-07-23T04:35:10.311648,15.41756969,.00044636,97.3746,287.6020,129.4646,230.6997,0,U,60481,999,10779,.63798903E-3,.26956E-3,0
FLOCK 4BE-26,2024-149S,2026-07-23T05:12:18.387072,15.80773210,.00035893,97.3588,292.3547,217.0378,143.0642,0,U,60484,999,10813,.14712198E-2,.290751E-2,0
TOMORROW-S2,2024-149T,2026-07-23T11:00:58.252320,15.33231045,.00043996,97.3806,285.3504,128.9003,231.2632,0,U,60485,999,10764,.23759282E-3,.7552E-4,0
FLOCK 4BE-36,2024-149U,2026-07-23T04:02:55.603968,15.43742236,.00051768,97.3733,289.0528,131.0142,229.1555,0,U,60486,999,10790,.39729158E-3,.17889E-3,0
FLOCK 4BE-25,2024-149V,2026-07-23T05:33:51.117696,15.39710741,.00039965,97.3785,287.6475,124.8086,235.3536,0,U,60487,999,10778,.37195304E-3,.1463E-3,0
FLOCK 4BE-31,2024-149W,2026-07-23T05:29:30.939648,15.45406400,.00041176,97.3787,290.0825,131.4734,228.6869,0,U,60488,999,10794,.47102344E-3,.22467E-3,0
FLOCK 4BE-20,2024-149X,2026-07-23T05:06:27.310176,15.38964333,.00054826,97.3681,286.4161,131.2449,228.9270,0,U,60489,999,10775,.32991857E-3,.12653E-3,0
FLOCK 4BE-23,2024-149Y,2026-07-23T05:06:44.807040,15.38527060,.00051174,97.3764,286.8110,135.0634,225.1027,0,U,60490,999,10773,.37874768E-3,.14334E-3,0
FLOCK 4BE-15,2024-149Z,2026-07-23T12:19:26.832000,15.66589733,.00043184,97.3653,291.4281,176.9879,183.1408,0,U,60491,999,10810,.13565917E-2,.143852E-2,0
FLOCK 4BE-17,2024-149AA,2026-07-23T05:04:24.407040,15.40764656,.00047203,97.3762,287.8877,126.8308,233.3372,0,U,60492,999,10780,.42312886E-3,.1725E-3,0
NUSAT-50 (NANCY ROMAN),2024-149AB,2026-07-23T11:06:09.561024,15.30426807,.00047693,97.3775,285.4776,82.3777,277.8006,0,U,60493,999,10767,.30684772E-3,.8957E-4,0
FLOCK 4BE-22,2024-149AC,2026-07-23T11:37:30.199584,15.42293661,.00050128,97.3725,288.4144,133.7241,226.4422,0,U,60494,999,10789,.40405183E-3,.17329E-3,0
FLOCK 4BE-34,2024-149AD,2026-07-23T12:03:26.879616,15.42148639,.00053863,97.3766,289.2766,138.8881,221.2773,0,U,60495,999,10792,.39616174E-3,.16907E-3,0
TYCHE,2024-149AE,2026-07-23T12:45:28.368576,15.25793264,.00035891,97.3741,281.8560,146.7650,213.3814,0,U,60496,999,10744,.16817087E-3,.4225E-4,0
FLOCK 4BE-32,2024-149AF,2026-07-23T04:27:57.646368,15.43301800,.0005353,97.3709,288.5300,136.8434,223.3234,0,U,60497,999,10788,.43001312E-3,.19087E-3,0
NUSAT-48 (HENRIETTA LEAVITT),2024-149AG,2026-07-22T16:01:25.704768,15.29976514,.00049049,97.3904,284.9909,132.1158,228.0500,0,U,60498,999,10756,.26011572E-3,.7475E-4,0
FLOCK 4BE-30,2024-149AH,2026-07-23T12:28:36.539040,15.67861459,.00061421,97.3730,291.5479,201.7995,158.3006,0,U,60499,999,10744,.24932916E-2,.283187E-2,0
NUSAT-49 (KLARA DAN VON NEUMANN),2024-149AJ,2026-07-23T04:03:54.538272,15.29873402,.00028961,97.3780,285.2115,148.3571,211.7845,0,U,60500,999,10763,.96043304E-4,.2702E-4,0
FLOCK 4BE-11,2024-149AK,2026-07-23T05:26:37.089024,15.44098653,.00053742,97.3687,288.8351,136.9580,223.2090,0,U,60501,999,10791,.43159992E-3,.19682E-3,0
YAM-7,2024-149AN,2026-07-23T04:13:26.535648,15.32262504,.00044375,97.3770,284.2880,145.9611,214.1916,0,U,60504,999,10756,.23363882E-3,.7202E-4,0
FLOCK 4BE-24,2024-149AP,2026-07-23T11:14:35.516832,15.44360001,.00055843,97.3698,289.3533,146.1141,214.0465,0,U,60505,999,10796,.47284502E-3,.21769E-3,0
LUR-1,2024-149AQ,2026-07-23T11:14:31.119936,15.30527314,.00047659,97.3723,283.0413,156.4472,203.6988,0,U,60506,999,10752,.22812967E-3,.6659E-4,0
TANAGER-1,2024-149AR,2026-07-22T12:54:14.484960,15.43942180,.00036004,97.2319,297.6298,123.9157,236.2434,0,U,60507,999,10849,.7611011E-5,.262E-5,0
EAGLEEYE,2024-149AS,2026-07-23T04:52:50.511360,15.78556291,.00041585,97.3702,299.7300,173.5924,186.5397,0,U,60508,999,10860,.88154601E-3,.155157E-2,0
FLOCK 4BE-29,2024-149AT,2026-07-23T04:37:09.721632,15.46012232,.00041169,97.3794,290.6454,157.3326,202.8106,0,U,60509,999,10797,.10109856E-2,.49504E-3,0
FLOCK 4BE-2,2024-149AV,2026-07-23T11:42:11.337408,15.56787431,.00051913,97.3821,292.9273,151.7186,208.4352,0,U,60511,999,10814,.10389452E-2,.74897E-3,0
FLOCK 4BE-13,2024-149AW,2026-07-23T05:28:34.697568,15.42784687,.00054976,97.3709,289.0355,132.7555,227.4156,0,U,60512,999,10792,.33974516E-3,.14795E-3,0
FLOCK 4BE-27,2024-149AX,2026-07-23T04:25:43.949280,15.35024754,.0004716,97.3815,286.0653,157.3006,202.8447,0,U,60513,999,10766,.29375329E-3,.9907E-4,0
FLOCK 4BE-9,2024-149AY,2026-07-23T04:28:46.397568,15.41818969,.0004219,97.3782,288.8315,150.1621,209.9868,0,U,60514,999,10786,.43122021E-3,.18209E-3,0
