{"epoch":1784838743,"count":18315,"objects":[{"id":"60481","name":"FLOCK 4BE 7","type":"PAYLOAD","l1":"1 60481U 24149P   26204.19109157  .00026956  00000-0  63799-3 0  9991","l2":"2 60481  97.3746 287.6020 0004464 129.4646 230.6997 15.41756969107795"},{"id":"60484","name":"FLOCK 4BE 26","type":"PAYLOAD","l1":"1 60484U 24149S   26204.21687948  .00290751  00000-0  14712-2 0  9992","l2":"2 60484  97.3588 292.3547 0003589 217.0378 143.0642 15.80773210108136"},{"id":"60485","name":"TOMORROW-S2","type":"PAYLOAD","l1":"1 60485U 24149T   26204.45900755  .00007552  00000-0  23759-3 0  9990","l2":"2 60485  97.3806 285.3504 0004400 128.9003 231.2632 15.33231045107640"},{"id":"60486","name":"FLOCK 4BE 36","type":"PAYLOAD","l1":"1 60486U 24149U   26204.16869912  .00017889  00000-0  39729-3 0  9996","l2":"2 60486  97.3733 289.0528 0005177 131.0142 229.1555 15.43742236107907"},{"id":"60487","name":"FLOCK 4BE 25","type":"PAYLOAD","l1":"1 60487U 24149V   26204.23184164  .00014630  00000-0  37195-3 0  9990","l2":"2 60487  97.3785 287.6475 0003997 124.8086 235.3536 15.39710741107780"},{"id":"60488","name":"FLOCK 4BE 31","type":"PAYLOAD","l1":"1 60488U 24149W   26204.22883032  .00022467  00000-0  47102-3 0  9996","l2":"2 60488  97.3787 290.0825 0004118 131.4734 228.6869 15.45406400107943"},{"id":"60489","name":"FLOCK 4BE 20","type":"PAYLOAD","l1":"1 60489U 24149X   26204.21281609  .00012653  00000-0  32992-3 0  9995","l2":"2 60489  97.3681 286.4161 0005483 131.2449 228.9270 15.38964333107750"},{"id":"60490","name":"FLOCK 4BE 23","type":"PAYLOAD","l1":"1 60490U 24149Y   26204.21301860  .00014334  00000-0  37875-3 0  9992","l2":"2 60490  97.3764 286.8110 0005117 135.0634 225.1027 15.38527060107733"},{"id":"60491","name":"FLOCK 4BE 15","type":"PAYLOAD","l1":"1 60491U 24149Z   26204.51350500  .00143852  00000-0  13566-2 0  9999","l2":"2 60491  97.3653 291.4281 0004318 176.9879 183.1408 15.66589733108103"},{"id":"60492","name":"FLOCK 4BE 17","type":"PAYLOAD","l1":"1 60492U 24149AA  26204.21139360  .00017250  00000-0  42313-3 0  9991","l2":"2 60492  97.3762 287.8877 0004720 126.8308 233.3372 15.40764656107808"},{"id":"60493","name":"NUSAT-50 (NANCY ROMAN)","type":"PAYLOAD","l1":"1 60493U 24149AB  26204.46261066  .00008957  00000-0  30685-3 0  9991","l2":"2 60493  97.3775 285.4776 0004769  82.3777 277.8006 15.30426807107678"},{"id":"60494","name":"FLOCK 4BE 22","type":"PAYLOAD","l1":"1 60494U 24149AC  26204.48437731  .00017329  00000-0  40405-3 0  9992","l2":"2 60494  97.3725 288.4144 0005013 133.7241 226.4422 15.42293661107895"},{"id":"60495","name":"FLOCK 4BE 34","type":"PAYLOAD","l1":"1 60495U 24149AD  26204.50239444  .00016907  00000-0  39616-3 0  9990","l2":"2 60495  97.3766 289.2766 0005386 138.8881 221.2773 15.42148639107929"},{"id":"60496","name":"TYCHE","type":"PAYLOAD","l1":"1 60496U 24149AE  26204.53157834  .00004225  00000-0  16817-3 0  9994","l2":"2 60496  97.3741 281.8560 0003589 146.7650 213.3814 15.25793264107444"},{"id":"60497","name":"FLOCK 4BE 32","type":"PAYLOAD","l1":"1 60497U 24149AF  26204.18608387  .00019087  00000-0  43001-3 0  9997","l2":"2 60497  97.3709 288.5300 0005353 136.8434 223.3234 15.43301800107882"},{"id":"60498","name":"NUSAT-48 (H. LEAVITT)","type":"PAYLOAD","l1":"1 60498U 24149AG  26203.66765862  .00007475  00000-0  26012-3 0  9993","l2":"2 60498  97.3904 284.9909 0004905 132.1158 228.0500 15.29976514107566"},{"id":"60499","name":"FLOCK 4BE 30","type":"PAYLOAD","l1":"1 60499U 24149AH  26204.51986735  .00283187  00000-0  24933-2 0  9998","l2":"2 60499  97.3730 291.5479 0006142 201.7995 158.3006 15.67861459107443"},{"id":"60500","name":"NUSAT-49(K.VON NEUMANN)","type":"PAYLOAD","l1":"1 60500U 24149AJ  26204.16938123  .00002702  00000-0  96043-4 0  9995","l2":"2 60500  97.3780 285.2115 0002896 148.3571 211.7845 15.29873402107631"},{"id":"60501","name":"FLOCK 4BE 11","type":"PAYLOAD","l1":"1 60501U 24149AK  26204.22681816  .00019682  00000-0  43160-3 0  9993","l2":"2 60501  97.3687 288.8351 0005374 136.9580 223.2090 15.44098653107911"},{"id":"60504","name":"YAM-7","type":"PAYLOAD","l1":"1 60504U 24149AN  26204.17600157  .00007202  00000-0  23364-3 0  9998","l2":"2 60504  97.3770 284.2880 0004437 145.9611 214.1916 15.32262504107560"},{"id":"60505","name":"FLOCK 4BE 24","type":"PAYLOAD","l1":"1 60505U 24149AP  26204.46846663  .00021769  00000-0  47285-3 0  9997","l2":"2 60505  97.3698 289.3533 0005584 146.1141 214.0465 15.44360001107962"},{"id":"60506","name":"LUR-1","type":"PAYLOAD","l1":"1 60506U 24149AQ  26204.46841574  .00006659  00000-0  22813-3 0  9995","l2":"2 60506  97.3723 283.0413 0004766 156.4472 203.6988 15.30527314107525"},{"id":"60507","name":"TANAGER-1 4001","type":"PAYLOAD","l1":"1 60507U 24149AR  26203.53766765  .00000262  00000-0  76110-5 0  9996","l2":"2 60507  97.2319 297.6298 0003600 123.9157 236.2434 15.43942180108494"},{"id":"60508","name":"EAGLEEYE","type":"PAYLOAD","l1":"1 60508U 24149AS  26204.20336240  .00155157  00000-0  88155-3 0  9997","l2":"2 60508  97.3702 299.7300 0004158 173.5924 186.5397 15.78556291108601"},{"id":"60509","name":"FLOCK 4BE 29","type":"PAYLOAD","l1":"1 60509U 24149AT  26204.19247363  .00049504  00000-0  10110-2 0  9996","l2":"2 60509  97.3794 290.6454 0004117 157.3326 202.8106 15.46012232107970"},{"id":"60511","name":"FLOCK 4BE 2","type":"PAYLOAD","l1":"1 60511U 24149AV  26204.48763122  .00074897  00000-0  10389-2 0  9998","l2":"2 60511  97.3821 292.9273 0005191 151.7186 208.4352 15.56787431108149"},{"id":"60512","name":"FLOCK 4BE 13","type":"PAYLOAD","l1":"1 60512U 24149AW  26204.22817937  .00014795  00000-0  33975-3 0  9993","l2":"2 60512  97.3709 289.0355 0005498 132.7555 227.4156 15.42784687107925"},{"id":"60513","name":"FLOCK 4BE 27","type":"PAYLOAD","l1":"1 60513U 24149AX  26204.18453645  .00009907  00000-0  29375-3 0  9999","l2":"2 60513  97.3815 286.0653 0004716 157.3006 202.8447 15.35024754107663"},{"id":"60514","name":"FLOCK 4BE 9","type":"PAYLOAD","l1":"1 60514U 24149AY  26204.18664812  .00018209  00000-0  43122-3 0  9991","l2":"2 60514  97.3782 288.8315 0004219 150.1621 209.9868 15.41818969107867"}]}